{"type": "FeatureCollection", "features": [ {"type": "Feature", "properties": {"norad_id": 39019, "name": "PLEIADES 1B", "group": "resource", "lat": 13.4653570879017, "lon": 70.33345574175354, "alt_km": 698.6288895355519, "timestamp": "2025-12-25T20:42:38.344147+00:00", "meta": {"OBJECT_NAME": "PLEIADES 1B", "OBJECT_ID": "2012-068A", "EPOCH": "2025-12-25T05:49:50.094624", "MEAN_MOTION": 14.58563598, "ECCENTRICITY": 0.00011508, "INCLINATION": 98.1778, "RA_OF_ASC_NODE": 71.6966, "ARG_OF_PERICENTER": 87.1097, "MEAN_ANOMALY": 273.0234, "EPHEMERIS_TYPE": 0, "CLASSIFICATION_TYPE": "U", "NORAD_CAT_ID": 39019, "ELEMENT_SET_NO": 999, "REV_AT_EPOCH": 69549, "BSTAR": 7.3466428e-05, "MEAN_MOTION_DOT": 2.96e-06, "MEAN_MOTION_DDOT": 0}, "tle": {"line1": "1 39019U 12068A   25359.24294091  .00000296  00000+0  73466-4 0  9990", "line2": "2 39019  98.1778  71.6966 0001150  87.1097 273.0234 14.58563598695496"}}, "geometry": {"type": "Point", "coordinates": [70.33345574175354, 13.4653570879017]}}, {"type": "Feature", "properties": {"norad_id": 39030, "name": "GOKTURK 2", "group": "resource", "lat": -60.77187499682565, "lon": -145.15823593284296, "alt_km": 652.3267409797218, "timestamp": "2025-12-25T20:42:38.344157+00:00", "meta": {"OBJECT_NAME": "GOKTURK 2", "OBJECT_ID": "2012-073A", "EPOCH": "2025-12-25T06:20:24.298368", "MEAN_MOTION": 14.75307727, "ECCENTRICITY": 0.00014422, "INCLINATION": 97.6884, "RA_OF_ASC_NODE": 200.3014, "ARG_OF_PERICENTER": 107.1554, "MEAN_ANOMALY": 252.9814, "EPHEMERIS_TYPE": 0, "CLASSIFICATION_TYPE": "U", "NORAD_CAT_ID": 39030, "ELEMENT_SET_NO": 999, "REV_AT_EPOCH": 69886, "BSTAR": 0.0001159069, "MEAN_MOTION_DOT": 7.38e-06, "MEAN_MOTION_DDOT": 0}, "tle": {"line1": "1 39030U 12073A   25359.26417012  .00000738  00000+0  11591-3 0  9992", "line2": "2 39030  97.6884 200.3014 0001442 107.1554 252.9814 14.75307727698864"}}, "geometry": {"type": "Point", "coordinates": [-145.15823593284296, -60.77187499682565]}}, {"type": "Feature", "properties": {"norad_id": 39084, "name": "LANDSAT 8", "group": "resource", "lat": 63.14515491400628, "lon": -95.70063034398713, "alt_km": 695.6595663506696, "timestamp": "2025-12-25T20:42:38.344167+00:00", "meta": {"OBJECT_NAME": "LANDSAT 8", "OBJECT_ID": "2013-008A", "EPOCH": "2025-12-25T05:20:57.942240", "MEAN_MOTION": 14.57114786, "ECCENTRICITY": 0.0001052, "INCLINATION": 98.2056, "RA_OF_ASC_NODE": 67.1112, "ARG_OF_PERICENTER": 93.2856, "MEAN_ANOMALY": 266.8463, "EPHEMERIS_TYPE": 0, "CLASSIFICATION_TYPE": "U", "NORAD_CAT_ID": 39084, "ELEMENT_SET_NO": 999, "REV_AT_EPOCH": 67256, "BSTAR": 0.00010359924, "MEAN_MOTION_DOT": 4.22e-06, "MEAN_MOTION_DDOT": 0}, "tle": {"line1": "1 39084U 13008A   25359.22289285  .00000422  00000+0  10360-3 0  9998", "line2": "2 39084  98.2056  67.1112 0001052  93.2856 266.8463 14.57114786672560"}}, "geometry": {"type": "Point", "coordinates": [-95.70063034398713, 63.14515491400628]}}, {"type": "Feature", "properties": {"norad_id": 39086, "name": "SARAL", "group": "resource", "lat": 32.133191004909975, "lon": 178.1995708831444, "alt_km": 779.2628779227089, "timestamp": "2025-12-25T20:42:38.344177+00:00", "meta": {"OBJECT_NAME": "SARAL", "OBJECT_ID": "2013-009A", "EPOCH": "2025-12-25T07:09:03.343968", "MEAN_MOTION": 14.32761263, "ECCENTRICITY": 0.00029585, "INCLINATION": 98.5503, "RA_OF_ASC_NODE": 183.0645, "ARG_OF_PERICENTER": 85.0166, "MEAN_ANOMALY": 275.1356, "EPHEMERIS_TYPE": 0, "CLASSIFICATION_TYPE": "U", "NORAD_CAT_ID": 39086, "ELEMENT_SET_NO": 999, "REV_AT_EPOCH": 67070, "BSTAR": 6.163749e-05, "MEAN_MOTION_DOT": 1.24e-06, "MEAN_MOTION_DDOT": 0}, "tle": {"line1": "1 39086U 13009A   25359.29795537  .00000124  00000+0  61637-4 0  9993", "line2": "2 39086  98.5503 183.0645 0002958  85.0166 275.1356 14.32761263670709"}}, "geometry": {"type": "Point", "coordinates": [178.1995708831444, 32.133191004909975]}}, {"type": "Feature", "properties": {"norad_id": 39150, "name": "GAOFEN-1", "group": "resource", "lat": 72.11385658957742, "lon": 44.69696151803202, "alt_km": 622.0696546450372, "timestamp": "2025-12-25T20:42:38.344187+00:00", "meta": {"OBJECT_NAME": "GAOFEN-1", "OBJECT_ID": "2013-018A", "EPOCH": "2025-12-25T07:21:57.500064", "MEAN_MOTION": 14.76502506, "ECCENTRICITY": 0.00185603, "INCLINATION": 97.9309, "RA_OF_ASC_NODE": 69.7431, "ARG_OF_PERICENTER": 105.0201, "MEAN_ANOMALY": 255.3065, "EPHEMERIS_TYPE": 0, "CLASSIFICATION_TYPE": "U", "NORAD_CAT_ID": 39150, "ELEMENT_SET_NO": 999, "REV_AT_EPOCH": 68258, "BSTAR": 0.00018724519, "MEAN_MOTION_DOT": 1.257e-05, "MEAN_MOTION_DDOT": 0}, "tle": {"line1": "1 39150U 13018A   25359.30691551  .00001257  00000+0  18725-3 0  9995", "line2": "2 39150  97.9309  69.7431 0018560 105.0201 255.3065 14.76502506682587"}}, "geometry": {"type": "Point", "coordinates": [44.69696151803202, 72.11385658957742]}}, {"type": "Feature", "properties": {"norad_id": 39160, "name": "VNREDSAT 1", "group": "resource", "lat": -49.40618848881227, "lon": 64.04457309723915, "alt_km": 684.702726401053, "timestamp": "2025-12-25T20:42:38.344197+00:00", "meta": {"OBJECT_NAME": "VNREDSAT 1", "OBJECT_ID": "2013-021B", "EPOCH": "2025-12-25T07:49:28.477920", "MEAN_MOTION": 14.64940946, "ECCENTRICITY": 0.00011966, "INCLINATION": 97.9352, "RA_OF_ASC_NODE": 54.1589, "ARG_OF_PERICENTER": 82.7708, "MEAN_ANOMALY": 277.3632, "EPHEMERIS_TYPE": 0, "CLASSIFICATION_TYPE": "U", "NORAD_CAT_ID": 39160, "ELEMENT_SET_NO": 999, "REV_AT_EPOCH": 67483, "BSTAR": 0.00014686102, "MEAN_MOTION_DOT": 7.4e-06, "MEAN_MOTION_DDOT": 0}, "tle": {"line1": "1 39160U 13021B   25359.32602405  .00000740  00000+0  14686-3 0  9990", "line2": "2 39160  97.9352  54.1589 0001196  82.7708 277.3632 14.64940946674832"}}, "geometry": {"type": "Point", "coordinates": [64.04457309723915, -49.40618848881227]}}, {"type": "Feature", "properties": {"norad_id": 39227, "name": "ARIRANG-5 (KOMPSAT-5)", "group": "resource", "lat": 80.56966718413426, "lon": 57.652980220924604, "alt_km": 544.7282679627997, "timestamp": "2025-12-25T20:42:38.344207+00:00", "meta": {"OBJECT_NAME": "ARIRANG-5 (KOMPSAT-5)", "OBJECT_ID": "2013-042A", "EPOCH": "2025-12-25T07:31:04.314432", "MEAN_MOTION": 15.04484068, "ECCENTRICITY": 0.00030272, "INCLINATION": 97.6164, "RA_OF_ASC_NODE": 183.4387, "ARG_OF_PERICENTER": 34.3034, "MEAN_ANOMALY": 325.8387, "EPHEMERIS_TYPE": 0, "CLASSIFICATION_TYPE": "U", "NORAD_CAT_ID": 39227, "ELEMENT_SET_NO": 999, "REV_AT_EPOCH": 67771, "BSTAR": 0.00017050997, "MEAN_MOTION_DOT": 2.325e-05, "MEAN_MOTION_DDOT": 0}, "tle": {"line1": "1 39227U 13042A   25359.31324438  .00002325  00000+0  17051-3 0  9993", "line2": "2 39227  97.6164 183.4387 0003027  34.3034 325.8387 15.04484068677715"}}, "geometry": {"type": "Point", "coordinates": [57.652980220924604, 80.56966718413426]}}, {"type": "Feature", "properties": {"norad_id": 39418, "name": "SKYSAT-A", "group": "resource", "lat": 80.84154593158355, "lon": -4.139878093518062, "alt_km": 527.4320650630998, "timestamp": "2025-12-25T20:42:38.344218+00:00", "meta": {"OBJECT_NAME": "SKYSAT-A", "OBJECT_ID": "2013-066C", "EPOCH": "2025-12-25T02:51:41.608512", "MEAN_MOTION": 15.1169067, "ECCENTRICITY": 0.00216444, "INCLINATION": 97.4085, "RA_OF_ASC_NODE": 48.9509, "ARG_OF_PERICENTER": 192.0713, "MEAN_ANOMALY": 168.0001, "EPHEMERIS_TYPE": 0, "CLASSIFICATION_TYPE": "U", "NORAD_CAT_ID": 39418, "ELEMENT_SET_NO": 999, "REV_AT_EPOCH": 66217, "BSTAR": 0.00020529477, "MEAN_MOTION_DOT": 3.45e-05, "MEAN_MOTION_DDOT": 0}, "tle": {"line1": "1 39418U 13066C   25359.11923158  .00003450  00000+0  20529-3 0  9997", "line2": "2 39418  97.4085  48.9509 0021644 192.0713 168.0001 15.11690670662179"}}, "geometry": {"type": "Point", "coordinates": [-4.139878093518062, 80.84154593158355]}}, {"type": "Feature", "properties": {"norad_id": 39419, "name": "DUBAISAT-2", "group": "resource", "lat": 72.87561009182376, "lon": -35.252426717674226, "alt_km": 540.403555609365, "timestamp": "2025-12-25T20:42:38.344228+00:00", "meta": {"OBJECT_NAME": "DUBAISAT-2", "OBJECT_ID": "2013-066D", "EPOCH": "2025-12-25T06:03:10.844640", "MEAN_MOTION": 15.08478773, "ECCENTRICITY": 0.00098632, "INCLINATION": 97.4465, "RA_OF_ASC_NODE": 349.2748, "ARG_OF_PERICENTER": 272.5023, "MEAN_ANOMALY": 87.5076, "EPHEMERIS_TYPE": 0, "CLASSIFICATION_TYPE": "U", "NORAD_CAT_ID": 39419, "ELEMENT_SET_NO": 999, "REV_AT_EPOCH": 66015, "BSTAR": 0.00055421578, "MEAN_MOTION_DOT": 8.59e-05, "MEAN_MOTION_DDOT": 0}, "tle": {"line1": "1 39419U 13066D   25359.25220885  .00008590  00000+0  55422-3 0  9990", "line2": "2 39419  97.4465 349.2748 0009863 272.5023  87.5076 15.08478773660158"}}, "geometry": {"type": "Point", "coordinates": [-35.252426717674226, 72.87561009182376]}}, {"type": "Feature", "properties": {"norad_id": 39574, "name": "GPM-CORE", "group": "resource", "lat": 20.396606914846064, "lon": -21.270078345039536, "alt_km": 431.768915204927, "timestamp": "2025-12-25T20:42:38.344238+00:00", "meta": {"OBJECT_NAME": "GPM-CORE", "OBJECT_ID": "2014-009C", "EPOCH": "2025-12-25T04:29:34.333152", "MEAN_MOTION": 15.44656188, "ECCENTRICITY": 0.00090954, "INCLINATION": 64.9727, "RA_OF_ASC_NODE": 170.9967, "ARG_OF_PERICENTER": 250.7853, "MEAN_ANOMALY": 109.2304, "EPHEMERIS_TYPE": 0, "CLASSIFICATION_TYPE": "U", "NORAD_CAT_ID": 39574, "ELEMENT_SET_NO": 999, "REV_AT_EPOCH": 67093, "BSTAR": 0.00019483801, "MEAN_MOTION_DOT": 8.898e-05, "MEAN_MOTION_DDOT": 0}, "tle": {"line1": "1 39574U 14009C   25359.18720293  .00008898  00000+0  19484-3 0  9999", "line2": "2 39574  64.9727 170.9967 0009095 250.7853 109.2304 15.44656188670939"}}, "geometry": {"type": "Point", "coordinates": [-21.270078345039536, 20.396606914846064]}}]}